IMG;BENE_CULTURALE;TITOLO;SOGGETTO;TIPO_SCHEDA;CODICE_UNIVOCO;LOCALIZZAZIONE;CONTENITORE;DATAZIONE;AMBITO_CULTURALE;AUTORE;MATERIA_TECNICA;MISURE;CONDIZIONE_GIURIDICA;DATI_ANALITICI;ISCRIZIONE;NOTIZIE_STORICO-CRITICHE;ALTRA_LOCALIZZAZIONE;REPERIMENTO;ALTRE_ATTRIBUZIONI;COMMITTENZA;DATI_CATASTALI;GEOREFERENZIAZIONE;BIBLIOGRAFIA;DEFINIZIONE;DENOMINAZIONE;CLASSIFICAZIONE;REGIONE;PROVINCIA;COMUNE;LOCALITA;TOPONIMO;DIOCESI;INDIRIZZO;PROVVEDIMENTI_TUTELA;INVENTARIO;STIMA;RAPPORTO;ALTRI_CODICI;ENTE_SCHEDATORE;ENTE_COMPETENTE;AUTORI;ANNO_CREAZIONE;ANNO_MODIFICA;LAT;LON
http://www.sigecweb.beniculturali.it/images/fullsize/ICCD12500/ICCD6132907_dd000337.jpg;"FUSTO DI COLONNA, FRAMMENTO";"";"";"OA_2.00";"18 00053823";"RC, POLISTENA";"MUSEO CIVICO";"SECC. XVI/ XVIII ; 1500  - 1799 [CONTESTO]";"AMBITO LOCALE";"";"PIETRA GRANITICA";"alt. 89, diam. 32, ";"PROPRIETA' ENTE LOCALE, COMUNE DI POLISTENA";"";"";"";"RC, POLISTENA";"";"";"";"";"";"";"FUSTO DI COLONNA";"";"";"";"RC";"POLISTENA";"";"";"";"";"";"";"";"";"";"C337 (L.160/88)";"S14";"Compilatore scheda: LOJACONO L.; Funzionario responsabile: IANNACE R.; Aggiornamento-revisione: ICCD (2001); ";"1995";"2001";38.412255;16.059411
http://www.sigecweb.beniculturali.it/images/fullsize/ICCD12500/ICCD6132905_dd000335.jpg;"RILIEVO, FRAMMENTO";"";"";"OA_2.00";"18 00053821";"RC, POLISTENA";"MUSEO CIVICO";"SECC. XVI/ XVIII ; 1500  - 1799 [ANALISI STILISTICA]";"AMBITO LOCALE";"";"MARMO SCOLPITO";"alt. 13.4, largh. 12.7, prof. 14.5, ";"PROPRIETA' ENTE LOCALE, COMUNE DI POLISTENA";"PRESENTA UN MOTIVO A VOLUTA";"";"";"RC, POLISTENA";"";"";"";"";"";"";"RILIEVO";"";"";"";"RC";"POLISTENA";"";"";"";"";"";"";"";"";"";"C337 (L.160/88)";"S14";"Compilatore scheda: LOJACONO L.; Funzionario responsabile: IANNACE R.";"1995";"";38.412255;16.059411
http://www.sigecweb.beniculturali.it/images/fullsize/ICCD12500/ICCD6132920_dd000350.jpg;"PALIOTTO, FRAMMENTO";"";"";"OA_2.00";"18 00053836";"RC, POLISTENA";"MUSEO CIVICO";"SEC. XVIII ; 1700  - 1799 [ANALISI STILISTICA]";"AMBITO LOCALE";"";"MARMO SCOLPITO";"";"PROPRIETA' ENTE LOCALE, COMUNE DI POLISTENA";"";"";"";"RC, CINQUEFRONDI";"";"";"";"";"";"";"PALIOTTO";"";"";"";"RC";"POLISTENA";"";"";"";"";"";"";"";"";"";"C337 (L.160/88)";"S14";"Compilatore scheda: LOJACONO L.; Funzionario responsabile: IANNACE R.";"1995";"";38.412255;16.059411
http://www.sigecweb.beniculturali.it/images/fullsize/ICCD12500/ICCD6132911_dd000341.jpg;"SCULTURA";"";"SAN SEBASTIANO";"OA_2.00";"18 00053827";"RC, POLISTENA";"MUSEO CIVICO";"SEC. XVIII ; 1700  - 1799 [ANALISI STILISTICA]";"AMBITO MERIDIONALE";"";"TERRACOTTA DIPINTALEGNO";"alt. 64, largh. 21, ";"PROPRIETA' ENTE LOCALE, COMUNE DI POLISTENA";"";"";"";"RC, POLISTENA";"";"";"";"";"";"";"SCULTURA";"";"";"";"RC";"POLISTENA";"";"";"";"";"";"";"";"";"";"C337 (L.160/88)";"S14";"Compilatore scheda: LOJACONO L.; Funzionario responsabile: IANNACE R.";"1995";"";38.412255;16.059411
http://www.sigecweb.beniculturali.it/images/fullsize/ICCD12500/ICCD6133042_dd000475.jpg;"DIPINTO";"";"FRATE DOMENICANO CHE LEGGE";"OA_2.00";"18 00053954";"RC, REGGIO CALABRIA";"MUSEO ARCHEOLOGICO NAZIONALE, LABORATORIO DI RESTAURO, SOPPALCO";"SEC. XVII ; 1700  - 1799 [ANALISI STILISTICA]";"AMBITO NAPOLETANO";"";"OLIO SU TELA";"alt. 88.2, largh. 70, ";"PROPRIETA' ENTE LOCALE, COMUNE DI REGGIO CALABRIA";"";" Posizione: SUL RETRO DELLA TELA; RESTAURATO DAL / PROF. MICHELE PRESTIPINO DA/ REGGIO CAL. 1962";"";"RC, REGGIO CALABRIA";"";"";"";"";"";"";"DIPINTO";"";"";"";"RC";"REGGIO CALABRIA";"";"";"";"";"";"";"";"";"";"C337 (L.160/88)";"S14";"Compilatore scheda: LOJACONO L.; Funzionario responsabile: IANNACE R.";"1995";"";;
http://www.sigecweb.beniculturali.it/images/fullsize/ICCD12500/ICCD6133044_dd000477.jpg;"DIPINTO";"";"MADONNA CHE INSEGNA A LEGGERE A GESU' BAMBINO";"OA_2.00";"18 00053956";"RC, REGGIO CALABRIA";"MUSEO ARCHEOLOGICO NAZIONALE, LABORATORIO DI RESTAURO, SOPPALCO";"SEC. XVI ; 1600  - 1699 [ANALISI STILISTICA]";"AMBITO MERIDIONALE";"";"OLIO SU TELA";"alt. 75, largh. 61.3, ";"PROPRIETA' ENTE LOCALE, COMUNE DI REGGIO CALABRIA";"HA CORNICE IN LEGNO INTAGLIATO E DORATOLA MADONNA TIENE L'INDICE SINISTRO TRA LE PAGINE DI UN LIBRO E COL BRACCIO DESTRO ABBRACCIA GESU' RAGAZZO. SULLO SFONDO A DESTRA SONO DUE ANGELI";"";"";"RC, REGGIO CALABRIA";"";"";"";"";"";"";"DIPINTO";"";"";"";"RC";"REGGIO CALABRIA";"";"";"";"";"";"";"";"";"";"C337 (L.160/88)";"S14";"Compilatore scheda: LOJACONO L.; Funzionario responsabile: IANNACE R.";"1995";"";;
http://www.sigecweb.beniculturali.it/images/fullsize/ICCD12500/ICCD6133049_dd000482.jpg;"DIPINTO";"";"PAESAGGIO CON FORTIFICAZIONI";"OA_2.00";"18 00053961";"RC, REGGIO CALABRIA";"MUSEO ARCHEOLOGICO NAZIONALE, LABORATORIO DI RESTAURO, SOPPALCO";"SEC. XVIII ; 1800  - 1899 [ANALISI STILISTICA]";"AMBITO NAPOLETANO";"";"OLIO SU TELA";"alt. 49.5, largh. 73.6, ";"PROPRIETA' ENTE LOCALE, COMUNE DI REGGIO CALABRIA";"";" Posizione: SUL RETRO DELLA TELA; RESTAURATO DAL/ PROF. MICHELE PRESTIPINO DA /REGGIO CAL. 1960";"";"RC, REGGIO CALABRIA";"";"";"";"";"";"";"DIPINTO";"";"";"";"RC";"REGGIO CALABRIA";"";"";"";"";"";"";"";"";"";"C337 (L.160/88)";"S14";"Compilatore scheda: LOJACONO L.; Funzionario responsabile: IANNACE R.";"1995";"";;
http://www.sigecweb.beniculturali.it/images/fullsize/ICCD12500/ICCD6133050_dd000483.jpg;"DIPINTO";"";"PAESAGGIO MARINO CON ISOLOTTO";"OA_2.00";"18 00053962";"RC, REGGIO CALABRIA";"MUSEO ARCHEOLOGICO NAZIONALE, LABORATORIO DI RESTAURO, SOPPALCO";"SEC. XIX ; 1800  - 1899 [ANALISI STILISTICA]";"AMBITO NAPOLETANO";"";"OLIO SU TELA";"alt. 49.5, largh. 74.3, ";"PROPRIETA' ENTE LOCALE, COMUNE DI REGGIO CALABRIA";"HA UNA TENUE CROMIA";"";"";"";"";"";"";"";"";"";"DIPINTO";"";"";"";"RC";"REGGIO CALABRIA";"";"";"";"";"";"";"";"";"";"C337 (L.160/88)";"S14";"Compilatore scheda: LOJACONO L.; Funzionario responsabile: IANNACE R.";"1995";"";;
http://www.sigecweb.beniculturali.it/images/fullsize/ICCD12500/ICCD6133051_dd000484.jpg;"DIPINTO";"";"PAESAGGIO CON ALBERI E FIGURA";"OA_2.00";"18 00053963";"RC, REGGIO CALABRIA";"MUSEO ARCHEOLOGICO NAZIONALE, LABORATORIO DI RESTAURO, SOPPALCO";"SEC. XIX ; 1800  - 1899 [ANALISI STILISTICA]";"AMBITO MERIDIONALE";"";"OLIO SU TELA";"alt. 30.5, largh. 40.1, ";"PROPRIETA' ENTE LOCALE, COMUNE DI REGGIO CALABRIA";"";" Posizione: SUL RETRO DELLA TELA; ALL'ORNATISSIMO SIGNORE/CA.RE (...) IGNAZIO LAVAGNA/ IN SEGNO DELL'ANTICAE SINCERA AMICIZIA. L'AUTORE";"";"";"";"";"";"";"";"";"DIPINTO";"";"";"";"RC";"REGGIO CALABRIA";"";"";"";"";"";"";"";"";"";"C337 (L.160/88)";"S14";"Compilatore scheda: LOJACONO L.; Funzionario responsabile: IANNACE R.";"1995";"";;
http://www.sigecweb.beniculturali.it/images/fullsize/ICCD12500/ICCD6133053_dd000486.jpg;"DIPINTO";"";"PAESAGGIO CON SAN GIOVANNI BATTISTA";"OA_2.00";"18 00053965";"RC, REGGIO CALABRIA";"MUSEO ARCHEOLOGICO NAZIONALE, LABORATORIO DI RESTAURO, SOPPALCO";"SEC. XVII ; 1800  - 1899 [ANALISI STILISTICA]";"AMBITO MERIDIONALE";"";"OLIO SU TELA";"alt. 48.5, largh. 66, ";"PROPRIETA' ENTE LOCALE, COMUNE DI REGGIO CALABRIA";"";" Posizione: SUL RETRO DELLA TELA; B. N. 24";"";"RC, REGGIO CALABRIA";"";"";"";"";"";"";"DIPINTO";"";"";"";"RC";"REGGIO CALABRIA";"";"";"";"";"";"";"";"";"";"C337 (L.160/88)";"S14";"Compilatore scheda: LOJACONO L.; Funzionario responsabile: IANNACE R.";"1995";"";;
http://www.sigecweb.beniculturali.it/images/fullsize/ICCD12500/ICCD6133055_dd000488.jpg;"DIPINTO";"";"PAESAGGIO BOSCOSO CON FIGURA";"OA_2.00";"18 00053967";"RC, REGGIO CALABRIA";"MUSEO ARCHEOLOGICO NAZIONALE, LABORATORIO DI RESTAURO, SOPPALCO";"SEC. XVIII ; 1800  - 1899 [ANALISI STILISTICA]";"AMBITO NAPOLETANO";"";"OLIO SU TELA";"alt. 81.6, largh. 66.9, ";"PROPRIETA' ENTE LOCALE, COMUNE DI REGGIO CALABRIA";"";"";"";"RC, REGGIO CALABRIA";"";"";"";"";"";"";"DIPINTO";"";"";"";"RC";"REGGIO CALABRIA";"";"";"";"";"";"";"";"";"";"C337 (L.160/88)";"S14";"Compilatore scheda: LOJACONO L.; Funzionario responsabile: IANNACE R.";"1995";"";;
;"DIPINTO";"";"PAESAGGIO FLUVIALE";"OA_2.00";"18 00053968";"RC, REGGIO CALABRIA";"MUSEO ARCHEOLOGICO NAZIONALE, LABORATORIO DI RESTAURO, SOPPALCO";"SEC. XVIII ; 1800  - 1899 [ANALISI STILISTICA]";"AMBITO NAPOLETANO";"";"OLIO SU TELA";"alt. 31.7, largh. 56.8, ";"PROPRIETA' ENTE LOCALE, COMUNE DI REGGIO CALABRIA";"HA CORNICE IN LEGNO INTAGLIATO E DORATO";"";"";"RC, REGGIO CALABRIA";"";"";"";"";"";"";"DIPINTO";"";"";"";"RC";"REGGIO CALABRIA";"";"";"";"";"";"";"";"";"";"C337 (L.160/88)";"S14";"Compilatore scheda: LOJACONO L.; Funzionario responsabile: IANNACE R.";"1995";"";;
http://www.sigecweb.beniculturali.it/images/fullsize/ICCD12500/ICCD6133058_dd000491.jpg;"DIPINTO";"";"PAESAGGIO CON ALBERI";"OA_2.00";"18 00053970";"RC, REGGIO CALABRIA";"MUSEO ARCHEOLOGICO NAZIONALE, LABORATORIO DI RESTAURO, SOPPALCO";"SEC. XVIII ; 1800  - 1899 [ANALISI STILISTICA]";"AMBITO MERIDIONALE";"";"OLIO SU TELA";"alt. 49.4, largh. 65.2, ";"PROPRIETA' ENTE LOCALE, COMUNE DI REGGIO CALABRIA";"";"";"";"";"";"";"";"";"";"";"DIPINTO";"";"";"";"RC";"REGGIO CALABRIA";"";"";"";"";"";"";"";"";"";"C337 (L.160/88)";"S14";"Compilatore scheda: LOJACONO L.; Funzionario responsabile: IANNACE R.";"1995";"";;
http://www.sigecweb.beniculturali.it/images/fullsize/ICCD12500/ICCD6132940_dd000370.jpg;"BASAMENTO DI COLONNA, FRAMMENTO";"";"";"OA_2.00";"18 00053855";"RC, POLISTENA";"MUSEO CIVICO";"SECC. XVI/ XVII ; 1500  - 1699 [ANALISI STILISTICA]";"BOTTEGA LOCALE";"";"PIETRA SCOLPITAARENARIA";"alt. 14, largh. 29.2, ";"PROPRIETA' ENTE LOCALE, COMUNE DI POLISTENA";"";"";"";"RC, POLISTENA";"";"";"";"";"";"";"BASAMENTO DI COLONNA";"";"";"";"RC";"POLISTENA";"";"";"";"";"";"";"";"";"";"C337 (L.160/88)";"S14";"Compilatore scheda: LOJACONO L.; Funzionario responsabile: IANNACE R.; Aggiornamento-revisione: ICCD (2001); ";"1995";"2001";38.412255;16.059411
http://www.sigecweb.beniculturali.it/images/fullsize/ICCD12500/ICCD6132941_dd000371.jpg;"lapide, sepolcrale";"";"";"OA_2.00";"18 00053856";"RC, POLISTENA";"MUSEO CIVICO";"SEC. XVIII ; 1757  - 1757 [DATA]";"BOTTEGA LOCALE";"";"MARMO SCOLPITO";"alt. 114.5, largh. 76, sp. 6.5";"PROPRIETA' ENTE LOCALE, COMUNE DI POLISTENA";"STEMMI, EMBLEMI, MARCHI: Classe di appartenenza: STEMMA, Identificazione: FAMIGLIA CHITTI, Quantità: 1, Posizione: IN ALTO, ";" Posizione: IN BASSO ALLO STEMMA; ADM. REV.ABBAS D:MICHAEL ARCHIPRAESBYTER CHITTI ET/V.I.DR: D CAROLVS EIVSFRATER, PRO EORVM, AC/COETERORVM DE EADEM FAMILIA. DESCENDENTIVM/BVSTIS TVMVLANDIS/ HOC SEPVLCRUM PARAVERVNT ANNO DOMINI/ 1757";"";"RC, POLISTENA";"";"";"";"";"";"";"lapide, sepolcrale";"";"";"";"RC";"POLISTENA";"";"";"";"";"";"";"";"";"";"C337 (L.160/88)";"S14";"Compilatore scheda: LOJACONO L.; Funzionario responsabile: IANNACE R.; Aggiornamento-revisione: ICCD (2001); ";"1995";"2001";38.412255;16.059411
http://www.sigecweb.beniculturali.it/images/fullsize/ICCD12500/ICCD6132945_dd000375.jpg;"RILIEVO, FRAMMENTO";"";"";"OA_2.00";"18 00053860";"RC, POLISTENA";"MUSEO CIVICO";"SEC. XVIII ; 1720  - 1729 [DATA]";"BOTTEGA LOCALE";"";"PIETRA SCOLPITA";"alt. 58.5, largh. 37.5, ";"PROPRIETA' ENTE LOCALE, COMUNE DI POLISTENA";"IN BASSO AD UNA CROCE SCOLPITA ENTRO UNA LOSANGA E' UNA DATA";"";"";"RC, POLISTENA";"";"";"";"";"";"";"RILIEVO";"";"";"";"RC";"POLISTENA";"";"";"";"";"";"";"";"";"";"C337 (L.160/88)";"S14";"Compilatore scheda: LOJACONO L.; Funzionario responsabile: IANNACE R.";"1995";"";38.412255;16.059411
http://www.sigecweb.beniculturali.it/images/fullsize/ICCD12500/ICCD6132948_dd000378.jpg;"MASCHERONE";"";"";"OA_2.00";"18 00053863";"RC, POLISTENA";"MUSEO CIVICO";"SEC. XVIII ; 1700  - 1799 [ANALISI STILISTICA]";"BOTTEGA LOCALE";"";"PIETRA SCOLPITA";"alt. 31, largh. 30.5, prof. 18, ";"PROPRIETA' ENTE LOCALE, COMUNE DI POLISTENA";"";"";"";"RC, POLISTENA";"";"";"";"";"";"";"MASCHERONE";"";"";"";"RC";"POLISTENA";"";"";"";"";"";"";"";"";"";"C337 (L.160/88)";"S14";"Compilatore scheda: LOJACONO L.; Funzionario responsabile: IANNACE R.";"1995";"";38.412255;16.059411
http://www.sigecweb.beniculturali.it/images/fullsize/ICCD12500/ICCD6132953_dd000383.jpg;"RILIEVO, FRAMMENTO";"";"";"OA_2.00";"18 00053868";"RC, POLISTENA";"MUSEO CIVICO";"SECC. XVI/ XVIII ; 1500  - 1799 [ANALISI STILISTICA]";"BOTTEGA LOCALE";"";"MARMO SCOLPITO";"alt. 38, largh. 46.6, ";"PROPRIETA' ENTE LOCALE, COMUNE DI POLISTENA";"SI TRATTA DELLA PARTE SUPERIORESTEMMI, EMBLEMI, MARCHI: Classe di appartenenza: STEMMA, Identificazione: NON IDENTIFICABILE, Quantità: 1, ";"";"";"RC, POLISTENA";"";"";"";"";"";"";"RILIEVO";"";"";"";"RC";"POLISTENA";"";"";"";"";"";"";"";"";"";"C337 (L.160/88)";"S14";"Compilatore scheda: LOJACONO L.; Funzionario responsabile: IANNACE R.";"1995";"";38.412255;16.059411
http://www.sigecweb.beniculturali.it/images/fullsize/ICCD12500/ICCD6132959_dd000389.jpg;"MENSOLA DI BALCONE";"";"";"OA_2.00";"18 00053874";"RC, POLISTENA";"MUSEO CIVICO";"SEC. XIX ; 1700  - 1799 [ANALISI STILISTICA]";"BOTTEGA LOCALE";"";"PIETRA SCOLPITA";"alt. 27, largh. 19.5, prof. 49, ";"PROPRIETA' ENTE LOCALE, COMUNE DI POLISTENA";"SULLA FRONTE E' UNA MASCHERA ORMAI QUASI ILLEGGIBILE";"";"";"RC, POLISTENA";"";"";"";"";"";"";"MENSOLA DI BALCONE";"";"";"";"RC";"POLISTENA";"";"";"";"";"";"";"";"";"";"C337 (L.160/88)";"S14";"Compilatore scheda: LOJACONO L.; Funzionario responsabile: IANNACE R.";"1995";"";38.412255;16.059411
http://www.sigecweb.beniculturali.it/images/fullsize/ICCD12500/ICCD6132903_dd000333.jpg;"DIPINTO";"";"RITRATTO D'UOMO V. RITRATTO MASCHILE";"OA_2.00";"18 00053819";"RC, POLISTENA";"MUSEO CIVICO";"SEC. XIX ; 1800  - 1899 [ANALISI STILISTICA]";"AMBITO CALABRESE";"";"OLIO SU TELA";"alt. 45.2, largh. 38.3, ";"PROPRIETA' ENTE LOCALE, COMUNE DI POLISTENA";"POTREBBE TRATTARSI DI UN PRELATO";"";"";"RC, POLISTENA";"";"";"";"";"";"";"DIPINTO";"";"";"";"RC";"POLISTENA";"";"";"";"";"";"";"";"";"";"C337 (L.160/88)";"S14";"Compilatore scheda: LOJACONO L.; Funzionario responsabile: IANNACE R.";"1995";"";38.412255;16.059411
http://www.sigecweb.beniculturali.it/images/fullsize/ICCD12500/ICCD6133060_dd000493.jpg;"DIPINTO";"";"PAESAGGIO RURALE CON FIGURE";"OA_2.00";"18 00053972";"RC, REGGIO CALABRIA";"MUSEO ARCHEOLOGICO NAZIONALE, PRIMO PIANO, UFFICIO CATALOGO";"SEC. XVII ; 1700  - 1799 [ANALISI STILISTICA]";"AMBITO NAPOLETANO";"";"OLIO SU TELA";"alt. 30.5, largh. 73.7, ";"PROPRIETA' ENTE LOCALE, COMUNE DI REGGIO CALABRIA";"HA CORNICE IN LEGNO INTAGLIATO E DORATO";" Posizione: SUL RETRO DELLA TELA; RESTAURATO DAL/ PROF. MICHELE PRESTIPINO / DA REGGIO CAL/1957";"";"RC, REGGIO CALABRIA";"";"";"";"";"";"";"DIPINTO";"";"";"";"RC";"REGGIO CALABRIA";"";"";"";"";"";"";"";"";"";"C337 (L.160/88)";"S14";"Compilatore scheda: LOJACONO L.; Funzionario responsabile: IANNACE R.";"1995";"";;
http://www.sigecweb.beniculturali.it/images/fullsize/ICCD12500/ICCD6133061_dd000494.jpg;"DIPINTO";"";"PAESAGGIO RURALE CON SCENA DI PASCOLO";"OA_2.00";"18 00053973";"RC, REGGIO CALABRIA";"MUSEO ARCHEOLOGICO NAZIONALE, PRIMO PIANO, UFFICIO CATALOGO";"SEC. XVII ; 1800  - 1899 [ANALISI STILISTICA]";"AMBITO NAPOLETANO";"";"OLIO SU TELA";"alt. 31.4, largh. 74.5, ";"PROPRIETA' ENTE LOCALE, COMUNE DI REGGIO CALABRIA";"HA CORNICE IN LEGNO INTAGLIATO E DORATO";" Posizione: SUL RETRO DELLA TELA; RESTAURATO DAL/ PROF. MICHELE PRESTIPINO DA/ REGGIO CAL. 1960";"";"RC, REGGIO CALABRIA";"";"";"";"";"";"";"DIPINTO";"";"";"";"RC";"REGGIO CALABRIA";"";"";"";"";"";"";"";"";"";"C337 (L.160/88)";"S14";"Compilatore scheda: LOJACONO L.; Funzionario responsabile: IANNACE R.";"1995";"";;
http://www.sigecweb.beniculturali.it/images/fullsize/ICCD12500/ICCD6133063_dd000496.jpg;"DIPINTO";"";"SCENA DI SACRIFICIO";"OA_2.00";"18 00053975";"RC, REGGIO CALABRIA";"MUSEO ARCHEOLOGICO NAZIONALE, LABORATORIO DI RESTAURO, SOPPALCO";"SECC. XVIII/ XIX ; 1800  - 1899 [ANALISI STILISTICA]";"AMBITO MERIDIONALE";"";"vetro dipinto";"alt. 26.9, largh. 32.6, ";"PROPRIETA' ENTE LOCALE, COMUNE DI REGGIO CALABRIA";"";" Posizione: IN BASSO; IL SACRIFICIO CHE FA MOISE'";"";"RC, REGGIO CALABRIA";"";"";"";"";"";"";"DIPINTO";"";"";"";"RC";"REGGIO CALABRIA";"";"";"";"";"";"";"";"";"";"C337 (L.160/88)";"S14";"Compilatore scheda: LOJACONO L.; Funzionario responsabile: IANNACE R.; Aggiornamento-revisione: ICCD (2001); ";"1995";"2001";;
http://www.sigecweb.beniculturali.it/images/fullsize/ICCD12500/ICCD6133066_dd000499.jpg;"DIPINTO";"";"SCENA DI RICREAZIONE AL MARE";"OA_2.00";"18 00053978";"RC, REGGIO CALABRIA";"MUSEO ARCHEOLOGICO NAZIONALE, PRIMO PIANO, SEZIONE DIDATTICA";"SEC. XVIII ; 1800  - 1899 [ANALISI STILISTICA]";"AMBITO NAPOLETANO";"";"OLIO SU TELA";"alt. 71.4, largh. 119.6, ";"PROPRIETA' ENTE LOCALE, COMUNE DI REGGIO CALABRIA";"HA CORNICE IN LEGNO INTAGLIATO E DORATO";" Posizione: SUL RETRO DELLA TELA; RESTAURATO DAL/ PROF. MICHELE PRESTIPINO DA/ REGGIO CAL. / 1962";"";"RC, REGGIO CALABRIA";"";"";"";"";"";"";"DIPINTO";"";"";"";"RC";"REGGIO CALABRIA";"";"";"";"";"";"";"";"";"";"C337 (L.160/88)";"S14";"Compilatore scheda: LOJACONO L.; Funzionario responsabile: IANNACE R.";"1995";"";;
http://www.sigecweb.beniculturali.it/images/fullsize/ICCD12500/ICCD6133068_dd000501.jpg;"DIPINTO";"";"CREAZIONE DI EVA";"OA_2.00";"18 00053980";"RC, REGGIO CALABRIA";"MUSEO ARCHEOLOGICO NAZIONALE, LABORATORIO DI RESTAURO, SOPPALCO";"SEC. XVI Seconda metà; 1650  - 1699 [ANALISI STILISTICA]";"AMBITO MERIDIONALE";"";"OLIO SU TAVOLA";"alt. 34, largh. 30.6, ";"PROPRIETA' ENTE LOCALE, COMUNE DI REGGIO CALABRIA";"";"";"";"RC, REGGIO CALABRIA";"";"";"";"";"";"";"DIPINTO";"";"";"";"RC";"REGGIO CALABRIA";"";"";"";"";"";"";"";"";"";"C337 (L.160/88)";"S14";"Compilatore scheda: LOJACONO L.; Funzionario responsabile: IANNACE R.";"1995";"";;
http://www.sigecweb.beniculturali.it/images/fullsize/ICCD12500/ICCD6132914_dd000344.jpg;"SCULTURA";"";"MADONNA CON BAMBINO";"OA_2.00";"18 00053830";"RC, POLISTENA";"MUSEO CIVICO";"SEC. XVIII FINE; 1790  - 1799 [ANALISI STILISTICA]";"AMBITO LOCALE";"";"TERRACOTTA DIPINTA";"alt. 32, largh. 18.2, prof. 13.3, ";"PROPRIETA' ENTE LOCALE, COMUNE DI POLISTENA";"";"";"";"RC, POLISTENA";"";"";"";"";"";"";"SCULTURA";"";"";"";"RC";"POLISTENA";"";"";"";"";"";"";"";"";"";"C337 (L.160/88)";"S14";"Compilatore scheda: LOJACONO L.; Funzionario responsabile: IANNACE R.";"1995";"";38.412255;16.059411
http://www.sigecweb.beniculturali.it/images/fullsize/ICCD12500/ICCD6133037_dd000470.jpg;"DIPINTO";"";"RUPE SUL MARE IN BURRASCA";"OA_2.00";"18 00053949";"RC, REGGIO CALABRIA";"MUSEO ARCHEOLOGICO NAZIONALE, LABORATORIO DI RESTAURO, SOPPALCO";"SEC. XIX ; 1800  - 1899 [ANALISI STILISTICA]";"AMBITO MERIDIONALE";"";"OLIO SU CARTONE";"alt. 37.6, largh. 26.8, ";"PROPRIETA' ENTE LOCALE, COMUNE DI REGGIO CALABRIA";"";"";"";"";"";"";"";"";"";"";"DIPINTO";"";"";"";"RC";"REGGIO CALABRIA";"";"";"";"";"";"";"";"";"";"C337 (L.160/88)";"S14";"Compilatore scheda: LOJACONO L.; Funzionario responsabile: IANNACE R.";"1995";"";;
http://www.sigecweb.beniculturali.it/images/fullsize/ICCD12500/ICCD6133038_dd000471.jpg;"DIPINTO";"";"RITRATTO MASCHILE";"OA_2.00";"18 00053950";"RC, REGGIO CALABRIA";"MUSEO ARCHEOLOGICO NAZIONALE, LABORATORIO DI RESTAURO, SOPPALCO";"SEC. XVIII ; 1800  - 1899 [ANALISI STILISTICA]";"AMBITO LOCALE";"";"OLIO SU TELA";"alt. 98, largh. 72, ";"PROPRIETA' ENTE LOCALE, COMUNE DI REGGIO CALABRIA";"IL PERSONAGGIO E' RITRATTO SEDUTO, PRESSO UNA LIBRERIA";"";"";"RC, REGGIO CALABRIA";"";"";"";"";"";"";"DIPINTO";"";"";"";"RC";"REGGIO CALABRIA";"";"";"";"";"";"";"";"";"";"C337 (L.160/88)";"S14";"Compilatore scheda: LOJACONO L.; Funzionario responsabile: IANNACE R.";"1995";"";;
http://www.sigecweb.beniculturali.it/images/fullsize/ICCD12500/ICCD6133040_dd000473.jpg;"DIPINTO";"ANNUNCIAZIONE";"ANGELO ANNUNCIANTE V. ANCHE MADONNA ANNUNCIATA ANNUNCIAZIONE";"OA_2.00";"18 00053952";"RC, REGGIO CALABRIA";"MUSEO ARCHEOLOGICO NAZIONALE, LABORATORIO DI RESTAURO, SOPPALCO";"SEC. XVII ; 1700  - 1799 [ANALISI STILISTICA]";"AMBITO CALABRESE";"";"OLIO SU TELA";"alt. 94, largh. 120.1, ";"PROPRIETA' ENTE LOCALE, COMUNE DI REGGIO CALABRIA";"";"";"";"RC, REGGIO CALABRIA";"";"";"";"";"";"";"DIPINTO";"";"";"";"RC";"REGGIO CALABRIA";"";"";"";"";"";"";"";"";"";"C337 (L.160/88)";"S14";"Compilatore scheda: LOJACONO L.; Funzionario responsabile: IANNACE R.";"1995";"";;
http://www.sigecweb.beniculturali.it/images/fullsize/ICCD12500/ICCD6132954_dd000384.jpg;"SCULTURA, FRAMMENTO";"";"TESTA DI VESCOVO";"OA_2.00";"18 00053869";"RC, POLISTENA";"MUSEO CIVICO";"SEC. XIX ; 1800  - 1899 [ANALISI STILISTICA]";"AMBITO CALABRESE";"";"LEGNO DIPINTO/ SCOLPITO";"alt. 48, largh. 19.3, ";"PROPRIETA' ENTE LOCALE, COMUNE DI POLISTENA";"";"";"";"RC, POLISTENA";"";"";"";"";"";"";"SCULTURA";"";"";"";"RC";"POLISTENA";"";"";"";"";"";"";"";"";"";"C337 (L.160/88)";"S14";"Compilatore scheda: LOJACONO L.; Funzionario responsabile: IANNACE R.";"1995";"";38.412255;16.059411
http://www.sigecweb.beniculturali.it/images/fullsize/ICCD12500/ICCD6132958_dd000388.jpg;"ACQUASANTIERA";"";"";"OA_2.00";"18 00053873";"RC, POLISTENA";"MUSEO CIVICO";"SECC. XVII/ XVIII ; 1700  - 1799 [ANALISI STILISTICA]";"BOTTEGA LOCALE";"";"MARMO SCOLPITO";"alt. 14, largh. 20.8, ";"PROPRIETA' ENTE LOCALE, COMUNE DI POLISTENA";"HA CORPO CAVO A SEZIONE CIRCOLARE, CON QUATTRO SPORGENZE CURVE LUNGO IL BORDO";"";"";"RC, POLISTENA";"";"";"";"";"";"";"ACQUASANTIERA";"";"";"";"RC";"POLISTENA";"";"";"";"";"";"";"";"";"";"C337 (L.160/88)";"S14";"Compilatore scheda: LOJACONO L.; Funzionario responsabile: IANNACE R.";"1995";"";38.412255;16.059411
http://www.sigecweb.beniculturali.it/images/fullsize/ICCD12500/ICCD6133005_dd000436.jpg;"RILIEVO, FRAMMENTO";"";"BACCANALE";"OA_2.00";"18 00053915";"RC, REGGIO CALABRIA";"MUSEO ARCHEOLOGICO NAZIONALE, LABORATORIO DI RESTAURO, SOPPALCO";"SEC. XVIII FINE; 1790  - 1799 [ANALISI STILISTICA]";"AMBITO MERIDIONALE";"";"CRETACRETA DIPINTA";"alt. 23.5, largh. 48.5, ";"PROPRIETA' ENTE LOCALE, COMUNE DI REGGIO CALABRIA";"BASSORILIEVO CON CORNICE IN LEGNO E DIPINTO";"";"";"RC, REGGIO CALABRIA";"";"";"";"";"";"";"RILIEVO";"";"";"";"RC";"REGGIO CALABRIA";"";"";"";"";"";"";"";"";"";"C337 (L.160/88)";"S14";"Compilatore scheda: LOJACONO L.; Funzionario responsabile: IANNACE R.; Aggiornamento-revisione: ICCD (2001); ";"1995";"2001";;
http://www.sigecweb.beniculturali.it/images/fullsize/ICCD12500/ICCD6133006_dd000437.jpg;"DIPINTO";"";"ACHILLE EDUCATO DA CHIRONE";"OA_2.00";"18 00053916";"RC, REGGIO CALABRIA";"MUSEO ARCHEOLOGICO NAZIONALE, LABORATORIO DI RESTAURO, SOPPALCO";"SEC. XVIII FINE; 1790  - 1799 [ANALISI STILISTICA]";"AMBITO MERIDIONALE";"";"OLIO SU TELA";"alt. 49.2, largh. 35.5, ";"PROPRIETA' ENTE LOCALE, COMUNE DI REGGIO CALABRIA";"IL CENTAURO CHIRONE E' RAFFIGURATO IN ATTO DI SUONARE LA CETRA; LO AFFIANCA IN PIEDI IL GIOVANE ACHILLE, CON UNA FARETRA SULLE SPALLE.";"";"";"RC, REGGIO CALABRIA";"";"";"";"";"";"";"DIPINTO";"";"";"";"RC";"REGGIO CALABRIA";"";"";"";"";"";"";"";"";"";"C337 (L.160/88)";"S14";"Compilatore scheda: LOJACONO L.; Funzionario responsabile: IANNACE R.";"1995";"";;
http://www.sigecweb.beniculturali.it/images/fullsize/ICCD12500/ICCD6132952_dd000382.jpg;"LAPIDE, FRAMMENTO";"";"";"OA_2.00";"18 00053867";"RC, POLISTENA";"MUSEO CIVICO";"SEC. XV ; 1400  - 1499 [ANALISI STILISTICA]";"BOTTEGA LOCALE";"";"PIETRA";"alt. 17, largh. 11.5, ";"PROPRIETA' ENTE LOCALE, COMUNE DI POLISTENA";"";"(...) TPO (...)";"";"RC, POLISTENA";"";"";"";"";"";"";"LAPIDE";"";"";"";"RC";"POLISTENA";"";"";"";"";"";"";"";"";"";"C337 (L.160/88)";"S14";"Compilatore scheda: LOJACONO L.; Funzionario responsabile: IANNACE R.";"1995";"";38.412255;16.059411
http://www.sigecweb.beniculturali.it/images/fullsize/ICCD12500/ICCD6133031_dd000464.jpg;"LAPIDE COMMEMORATIVA, FRAMMENTO";"";"";"OA_2.00";"18 00053944";"RC, POLISTENA";"MUSEO CIVICO";"SEC. XIX ; 1851  - 1851 [DATA]";"AMBITO LOCALE";"";"MARMO SCOLPITO";"alt. 31.5, largh. 30.5, sp. 10.3";"PROPRIETA' ENTE LOCALE, COMUNE DI POLISTENA";"";"(...) NGREGAZ (...)/ DELLA /SSMA TRINITA' E DEL/ ROSARIO/ ERESSE QTA CAPPELLA/ ESSENDO PRIORE/ E. MARVASO A. 1851";"";"RC, CITTANOVA";"";"";"";"";"";"";"LAPIDE COMMEMORATIVA";"";"";"";"RC";"POLISTENA";"";"";"";"";"";"";"";"";"";"C337 (L.160/88)";"S14";"Compilatore scheda: LOJACONO L.; Funzionario responsabile: IANNACE R.";"1995";"";38.412255;16.059411
http://www.sigecweb.beniculturali.it/images/fullsize/ICCD12500/ICCD6132917_dd000347.jpg;"SCULTURA, FRAMMENTO";"";"";"OA_2.00";"18 00053833";"RC, POLISTENA";"MUSEO CIVICO";"SECC. XVIII/ XIX ; 1700  - 1899 [ANALISI STILISTICA]";"AMBITO LOCALE";"";"MARMO SCOLPITO/ TRAPANATO";"alt. 12.8, largh. 7.8, ";"PROPRIETA' ENTE LOCALE, COMUNE DI POLISTENA";"PRESENTA UNA DECORAZIONE FLOREALE";"";"";"RC, POLISTENA";"";"";"";"";"";"";"SCULTURA";"";"";"";"RC";"POLISTENA";"";"";"";"";"";"";"";"";"";"C337 (L.160/88)";"S14";"Compilatore scheda: LOJACONO L.; Funzionario responsabile: IANNACE R.";"1995";"";38.412255;16.059411
http://www.sigecweb.beniculturali.it/images/fullsize/ICCD12500/ICCD6132919_dd000349.jpg;"CAPITELLO";"";"";"OA_2.00";"18 00053835";"RC, POLISTENA";"MUSEO CIVICO";"SECC. XVIII/ XIX ; 1700  - 1899 [ANALISI STILISTICA]";"AMBITO LOCALE";"";"MARMO SCOLPITO/ TRAPANATO";"alt. 21.8, largh. 23.8, prof. 13, ";"PROPRIETA' ENTE LOCALE, COMUNE DI POLISTENA";"HA DOPPIA VOLUTA IONICA RACCORDATE DA UN FESTONE FITOMORFO";"";"";"RC, CINQUEFRONDI";"";"";"";"";"";"";"CAPITELLO";"";"";"";"RC";"POLISTENA";"";"";"";"";"";"";"";"";"";"C337 (L.160/88)";"S14";"Compilatore scheda: LOJACONO L.; Funzionario responsabile: IANNACE R.";"1995";"";38.412255;16.059411
http://www.sigecweb.beniculturali.it/images/fullsize/ICCD12500/ICCD6132922_dd000352.jpg;"CONFESSIONALE, FRAMMENTO";"";"";"OA_2.00";"18 00053838";"RC, POLISTENA";"MUSEO CIVICO";"SEC. XIX INIZIO; 1800  - 1810 [ANALISI STILISTICA]";"AMBITO LOCALE";"";"LEGNO INTAGLIATO";"";"PROPRIETA' ENTE LOCALE, COMUNE DI POLISTENA";"TRA GLI ALTRI FRAMMENTI RISALTANO UN FREGIO AD INTARSIO CON UCCELLI TRA MOTIVI FITOMORFI, DUE GRANDI VOLUTE FOLIACEE, DUE VASI CON COMPOSIZIONI FLOREALI E DUE CAPITELLI CON DOPPIA VOLUTA IONICA RACCORDATA DA UN FESTONE VEGETALE.";"";"";"RC, POLISTENA";"";"";"";"";"";"";"CONFESSIONALE";"";"";"";"RC";"POLISTENA";"";"";"";"";"";"";"";"";"";"C337 (L.160/88)";"S14";"Compilatore scheda: LOJACONO L.; Funzionario responsabile: IANNACE R.";"1995";"";38.412255;16.059411
http://www.sigecweb.beniculturali.it/images/fullsize/ICCD12500/ICCD6133007_dd000438.jpg;"DIPINTO";"";"RITRATTO DI UN UFFICIALE BORBONICO";"OA_2.00";"18 00053917";"RC, REGGIO CALABRIA";"MUSEO ARCHEOLOGICO NAZIONALE, LABORATORIO DI RESTAURO, SOPPALCO";"SEC. XVIII FINE; 1790  - 1799 [ANALISI STILISTICA]";"AMBITO MERIDIONALE";"";"OLIO SU TELA";"alt. 64.2, largh. 51.7, ";"PROPRIETA' ENTE LOCALE, COMUNE DI REGGIO CALABRIA";"";" Posizione: SULRETRO DELLA TELA; RESTAURATO DAL / PROF. MICHELE PRESTIPINO DA/ REGGIO CAL./1962";"";"RC, REGGIO CALABRIA";"";"";"";"";"";"";"DIPINTO";"";"";"";"RC";"REGGIO CALABRIA";"";"";"";"";"";"";"";"";"";"C337 (L.160/88)";"S14";"Compilatore scheda: LOJACONO L.; Funzionario responsabile: IANNACE R.";"1995";"";;
http://www.sigecweb.beniculturali.it/images/fullsize/ICCD12500/ICCD6133009_dd000440.jpg;"DIPINTO";"MADONNA DELLA CONSOLAZIONE";"MADONNA CON BAMBINO E SANTI FRANCESCO D'ASSISI E ANTONIO DA PADOVA";"OA_2.00";"18 00053919";"RC, REGGIO CALABRIA";"MUSEO ARCHEOLOGICO NAZIONALE, LABORATORIO DI RESTAURO, SOPPALCO";"SEC. XVII ; 1600  - 1699 [ANALISI STILISTICA]";"AMBITO LOCALE";"";"OLIO SU TELA";"alt. 44.3, largh. 30.5, ";"PROPRIETA' ENTE LOCALE, COMUNE DI REGGIO CALABRIA";"DIPINTO OVALE CON CORNICE IN LEGNO INTAGLIATO E DORATO";"";"";"RC, REGGIO CALABRIA";"";"";"";"";"";"";"DIPINTO";"";"";"";"RC";"REGGIO CALABRIA";"";"";"";"";"";"";"";"";"";"C337 (L.160/88)";"S14";"Compilatore scheda: LOJACONO L.; Funzionario responsabile: IANNACE R.";"1995";"";;
;"DIPINTO";"";"MADONNA IN GLORIA, DIO PADRE E SANTI";"OA_2.00";"18 00053920";"RC, REGGIO CALABRIA";"MUSEO ARCHEOLOGICO NAZIONALE, LABORATORIO DI RESTAURO, SOPPALCO";"SEC. XVII ; 1600  - 1699 [ANALISI STILISTICA]";"AMBITO MERIDIONALE";"";"OLIO SU TELA";"alt. 153.8, largh. 100.4, ";"PROPRIETA' ENTE LOCALE, COMUNE DI REGGIO CALABRIA";"IN ALTO LA MADONNA, CORONATA DI STELLE, INDICA UN CARTIGLIO CON ISCRIZIONE, RETTO DA ANGELI, DIETRO IL QUALE E' DIO PADRE. IN BASSO SONO SAN GIOVANNI EVANGELISTA E UN SANTO VESCOVO.";" Posizione: SU UN CARTIGLIO IN ALTO A SINISTRA; UNUS DEUS PATER VERBI/ VIVETIS SAPIENT(...)/ SUBSISTENTIS";"";"RC, REGGIO CALABRIA";"";"";"";"";"";"";"DIPINTO";"";"";"";"RC";"REGGIO CALABRIA";"";"";"";"";"";"";"";"";"";"C337 (L.160/88)";"S14";"Compilatore scheda: LOJACONO L.; Funzionario responsabile: IANNACE R.";"1995";"";;
http://www.sigecweb.beniculturali.it/images/fullsize/ICCD12500/ICCD6133034_dd000467.jpg;"DIPINTO";"";"SACRIFICIO DI ISACCO";"OA_2.00";"18 00053946";"RC, REGGIO CALABRIA";"MUSEO ARCHEOLOGICO NAZIONALE, LABORATORIO DI RESTAURO, SOPPALCO";"SECC. XVI/ XVII ; 1700  - 1799 [ANALISI STILISTICA]";"AMBITO ROMANO";"";"OLIO SU TELA";"alt. 102, largh. 75.5, ";"PROPRIETA' ENTE LOCALE, COMUNE DI REGGIO CALABRIA";"HA CORNICE IN LEGNO INTAGLIATO E DORATO";"";"";"RC, REGGIO CALABRIA";"";"";"";"";"";"";"DIPINTO";"";"";"";"RC";"REGGIO CALABRIA";"";"";"";"";"";"";"";"";"";"C337 (L.160/88)";"S14";"Compilatore scheda: LOJACONO L.; Funzionario responsabile: IANNACE R.";"1995";"";;
http://www.sigecweb.beniculturali.it/images/fullsize/ICCD12500/ICCD6133035_dd000468.jpg;"DIPINTO";"";"SACRA FAMIGLIA CON SANT'ANNA";"OA_2.00";"18 00053947";"RC, REGGIO CALABRIA";"MUSEO ARCHEOLOGICO NAZIONALE, LABORATORIO DI RESTAURO, SOPPALCO";"SEC. XVIII ; 1800  - 1899 [ANALISI STILISTICA]";"AMBITO LOCALE";"";"OLIO SU TELA";"alt. 66.7, largh. 49.7, ";"PROPRIETA' ENTE LOCALE, COMUNE DI REGGIO CALABRIA";"HA CORNICE IN LEGNO INTAGLIATO, DIPINTO E PARZIALMENTE DORATO";"";"";"RC, REGGIO CALABRIA";"";"";"";"";"";"";"DIPINTO";"";"";"";"RC";"REGGIO CALABRIA";"";"";"";"";"";"";"";"";"";"C337 (L.160/88)";"S14";"Compilatore scheda: LOJACONO L.; Funzionario responsabile: IANNACE R.";"1995";"";;
http://www.sigecweb.beniculturali.it/images/fullsize/ICCD12500/ICCD6133036_dd000469.jpg;"DIPINTO";"";"BUSTO MASCHILE";"OA_2.00";"18 00053948";"RC, REGGIO CALABRIA";"MUSEO ARCHEOLOGICO NAZIONALE, PRIMO PIANO, UFFICIO CATALOGO";"SEC. XVII ; 1700  - 1799 [ANALISI STILISTICA]";"AMBITO MERIDIONALE";"";"OLIO SU TELA";"alt. 63.6, largh. 49.9, ";"PROPRIETA' ENTE LOCALE, COMUNE DI REGGIO CALABRIA";"";" Posizione: SUL RETRO DELLA TELA; RESTAURATO DAL/ PROF. MICHELE PRESTIPINO DA/ REGGIO CAL. / 1962";"";"RC, REGGIO CALABRIA";"";"";"";"";"";"";"DIPINTO";"";"";"";"RC";"REGGIO CALABRIA";"";"";"";"";"";"";"";"";"";"C337 (L.160/88)";"S14";"Compilatore scheda: LOJACONO L.; Funzionario responsabile: IANNACE R.";"1995";"";;
http://www.sigecweb.beniculturali.it/images/fullsize/ICCD12500/ICCD6133045_dd000478.jpg;"DIPINTO";"";"SAN GREGORIO ISPIRATO DALLO SPIRITO SANTO";"OA_2.00";"18 00053957";"RC, REGGIO CALABRIA";"MUSEO ARCHEOLOGICO NAZIONALE, LABORATORIO DI RESTAURO, SOPPALCO";"SEC. XVII ; 1800  - 1899 [ANALISI STILISTICA]";"AMBITO MERIDIONALE";"";"OLIO SU TELA";"alt. 85.8, largh. 102.4, ";"PROPRIETA' ENTE LOCALE, COMUNE DI REGGIO CALABRIA";"IL SANTO, IN ABITI PONTIFICALI, TIENE SULLE GAMBE UN LIBRO APERTO E VOLGELO SGUARDO ALLA COLOMBA DELLO SPIRITO SANTO. A DESTRA SONO DUE ANGELI.";" Posizione: SUL RETRO DELLA TELA; RESTAURATO DAL / PROF. MICHELE PRESTIPINO DA/ REGGIO CAL. 1959";"";"RC, REGGIO CALABRIA";"";"";"";"";"";"";"DIPINTO";"";"";"";"RC";"REGGIO CALABRIA";"";"";"";"";"";"";"";"";"";"C337 (L.160/88)";"S14";"Compilatore scheda: LOJACONO L.; Funzionario responsabile: IANNACE R.";"1995";"";;
http://www.sigecweb.beniculturali.it/images/fullsize/ICCD12500/ICCD6133047_dd000480.jpg;"DIPINTO";"";"PAESAGGIO FLUVIALE CON FIGURE";"OA_2.00";"18 00053959";"RC, REGGIO CALABRIA";"MUSEO ARCHEOLOGICO NAZIONALE, LABORATORIO DI RESTAURO, SOPPALCO";"SEC. XIX ; 1800  - 1899 [ANALISI STILISTICA]";"AMBITO MERIDIONALE";"";"OLIO SU TELA";"alt. 41.5, largh. 52.4, ";"PROPRIETA' ENTE LOCALE, COMUNE DI REGGIO CALABRIA";"";"";"";"";"";"";"";"";"";"";"DIPINTO";"";"";"";"RC";"REGGIO CALABRIA";"";"";"";"";"";"";"";"";"";"C337 (L.160/88)";"S14";"Compilatore scheda: LOJACONO L.; Funzionario responsabile: IANNACE R.";"1995";"";;
http://www.sigecweb.beniculturali.it/images/fullsize/ICCD12500/ICCD6133048_dd000481.jpg;"DIPINTO";"";"PAESAGGIO CON ROVINE";"OA_2.00";"18 00053960";"RC, REGGIO CALABRIA";"MUSEO ARCHEOLOGICO NAZIONALE, LABORATORIO DI RESTAURO, SOPPALCO";"SEC. XVIII ; 1800  - 1899 [ANALISI STILISTICA]";"AMBITO NAPOLETANO";"";"OLIO SU TELA";"alt. 75, largh. 110.4, ";"PROPRIETA' ENTE LOCALE, COMUNE DI REGGIO CALABRIA";"IN PRIMO PIANO A SINISTRA SONO ROVINE ARCHITETTONICHE, CIRCONDATE DA VEGETAZIONE. SULLO SFONDO A DESTRA E' UNA CASCATA, VERSO CUI SI DIRIGONO DUE FIGURINE";" Posizione: SUL RETRO DELLA TELA; RESTAURATO DAL PROF./ MICHELE PRESTIPINO DA / REGGIO CAL. /1957";"";"";"";"";"";"";"";"";"DIPINTO";"";"";"";"RC";"REGGIO CALABRIA";"";"";"";"";"";"";"";"";"";"C337 (L.160/88)";"S14";"Compilatore scheda: LOJACONO L.; Funzionario responsabile: IANNACE R.";"1995";"";;
http://www.sigecweb.beniculturali.it/images/fullsize/ICCD12500/ICCD6132961_dd000391.jpg;"SCULTURA, FRAMMENTO";"";"";"OA_2.00";"18 00053876";"RC, POLISTENA";"MUSEO CIVICO";"SEC. XIX ; 1864  - 1864 [DOCUMENTAZIONE]";"BOTTEGA LOCALE";"";"PIETRA SCOLPITA";"";"PROPRIETA' ENTE LOCALE, COMUNE DI POLISTENA";"SI TRATTA DI UN ELEMENTO SCOLPITO A FORMA DI PIGNA E DI UN BASSORILIEVO QUADRANGOLARE RAFFIGURANTE UNA MASCHERA, ADIBITA A BOCCA DI FONTANA.";"";"";"RC, POLISTENA";"";"";"";"";"";"";"SCULTURA";"";"";"";"RC";"POLISTENA";"";"";"";"";"";"";"";"";"";"C337 (L.160/88)";"S14";"Compilatore scheda: LOJACONO L.; Funzionario responsabile: IANNACE R.";"1995";"";38.412255;16.059411
http://www.sigecweb.beniculturali.it/images/fullsize/ICCD12500/ICCD6133069_dd000502.jpg;"DIPINTO";"";"SAN MICHELE ARCANGELO COMBATTE CONTRO SATANA";"OA_2.00";"18 00053981";"RC, REGGIO CALABRIA";"MUSEO ARCHEOLOGICO NAZIONALE, LABORATORIO DI RESTAURO, SOPPALCO";"SEC. XVIII ; 1700  - 1799 [ANALISI STILISTICA]";"AMBITO MERIDIONALE";"";"OLIO SU TELA";"alt. 35, largh. 26.8, ";"PROPRIETA' ENTE LOCALE, COMUNE DI REGGIO CALABRIA";"";"";"";"RC, REGGIO CALABRIA";"";"";"";"";"";"";"DIPINTO";"";"";"";"RC";"REGGIO CALABRIA";"";"";"";"";"";"";"";"";"";"C337 (L.160/88)";"S14";"Compilatore scheda: LOJACONO L.; Funzionario responsabile: IANNACE R.";"1995";"";;
http://www.sigecweb.beniculturali.it/images/fullsize/ICCD12500/ICCD6133070_dd000503.jpg;"DIPINTO";"";"RITRATTO MASCHILE";"OA_2.00";"18 00053982";"RC, REGGIO CALABRIA";"MUSEO ARCHEOLOGICO NAZIONALE, LABORATORIO DI RESTAURO, SOPPALCO";"SEC. XVIII ; 1700  - 1799 [ANALISI STILISTICA]";"AMBITO LOCALE";"";"OLIO SU TELA";"alt. 112, largh. 79, ";"PROPRIETA' ENTE LOCALE, COMUNE DI REGGIO CALABRIA";"HA CORNICE IN LEGNO INTAGLIATO E DORATO";"";"";"RC, REGGIO CALABRIA";"";"";"";"";"";"";"DIPINTO";"";"";"";"RC";"REGGIO CALABRIA";"";"";"";"";"";"";"";"";"";"C337 (L.160/88)";"S14";"Compilatore scheda: LOJACONO L.; Funzionario responsabile: IANNACE R.";"1995";"";;
http://www.sigecweb.beniculturali.it/images/fullsize/ICCD12500/ICCD6133071_dd000504.jpg;"DIPINTO";"";"MADONNA IMMACOLATA V. ANCHE IMMACOLATA CONCEZIONE";"OA_2.00";"18 00053983";"RC, REGGIO CALABRIA";"MUSEO ARCHEOLOGICO NAZIONALE, LABORATORIO DI RESTAURO, SOPPALCO";"SEC. XVIII ; 1700  - 1799 [ANALISI STILISTICA]";"AMBITO LOCALE";"";"OLIO SU TELA";"alt. 62.3, largh. 49.2, ";"PROPRIETA' ENTE LOCALE, COMUNE DI REGGIO CALABRIA";"BUSTO DELLA MADONNA CORONATA DI STELLE, IN ATTO DI PREGARE";"";"";"RC, REGGIO CALABRIA";"";"";"";"";"";"";"DIPINTO";"";"";"";"RC";"REGGIO CALABRIA";"";"";"";"";"";"";"";"";"";"C337 (L.160/88)";"S14";"Compilatore scheda: LOJACONO L.; Funzionario responsabile: IANNACE R.";"1995";"";;
http://www.sigecweb.beniculturali.it/images/fullsize/ICCD12500/ICCD6133073_dd000506.jpg;"DIPINTO";"";"CERERE E PANE";"OA_2.00";"18 00053985";"RC, REGGIO CALABRIA";"MUSEO ARCHEOLOGICO NAZIONALE, PRIMO PIANO, UFFICIO CATALOGO";"SEC. XVII ; 1600  - 1699 [ANALISI STILISTICA]";"AMBITO MERIDIONALE";"";"OLIO SU TELA";"alt. 49.1, largh. 64.6, ";"PROPRIETA' ENTE LOCALE, COMUNE DI REGGIO CALABRIA";"E' PRIVO DI CORNICE";"";"";"RC, REGGIO CALABRIA";"";"";"";"";"";"";"DIPINTO";"";"";"";"RC";"REGGIO CALABRIA";"";"";"";"";"";"";"";"";"";"C337 (L.160/88)";"S14";"Compilatore scheda: LOJACONO L.; Funzionario responsabile: IANNACE R.";"1995";"";;
http://www.sigecweb.beniculturali.it/images/fullsize/ICCD12500/ICCD6133074_dd000507.jpg;"DIPINTO";"";"FLAGELLAZIONE DI CRISTO V. ANCHE CRISTO FLAGELLATO CRISTO ALLA COLONNA";"OA_2.00";"18 00053986";"RC, REGGIO CALABRIA";"MUSEO ARCHEOLOGICO NAZIONALE, LABORATORIO DI RESTAURO, SOPPALCO";"SEC. XVIII ; 1700  - 1799 [ANALISI STILISTICA]";"AMBITO MERIDIONALE";"";"OLIO SU TAVOLA";"alt. 19.5, largh. 26.7, ";"PROPRIETA' ENTE LOCALE, COMUNE DI REGGIO CALABRIA";"";"";"";"RC, REGGIO CALABRIA";"";"";"";"";"";"";"DIPINTO";"";"";"";"RC";"REGGIO CALABRIA";"";"";"";"";"";"";"";"";"";"C337 (L.160/88)";"S14";"Compilatore scheda: LOJACONO L.; Funzionario responsabile: IANNACE R.";"1995";"";;
http://www.sigecweb.beniculturali.it/images/fullsize/ICCD12500/ICCD6133075_dd000508.jpg;"DIPINTO";"";"PAESAGGIO RURALE";"OA_2.00";"18 00053987";"RC, REGGIO CALABRIA";"MUSEO ARCHEOLOGICO NAZIONALE, PRIMO PIANO,SEZIONE DIDATTICA";"SEC. XVII ; 1600  - 1699 [ANALISI STILISTICA]";"AMBITO NAPOLETANO";"";"OLIO SU TELA";"alt. 21.7, largh. 48, ";"PROPRIETA' ENTE LOCALE, COMUNE DI REGGIO CALABRIA";"HA CORNICE IN LEGNO INTAGLIATO E DORATO";" Posizione: SUL RETRO DELLA TELA; RESTAURATO DAL/ PROF. MICHELE PRESTIPINO DA/ REGGIO CAL./ 1957";"";"RC, REGGIO CALABRIA";"";"ROSA' SALVATOR (NAPOLI 1615- ROMA 1673)";"";"";"";"";"DIPINTO";"";"";"";"RC";"REGGIO CALABRIA";"";"";"";"";"";"";"";"";"";"C337 (L.160/88)";"S14";"Compilatore scheda: LOJACONO L.; Funzionario responsabile: IANNACE R.";"1995";"";;
http://www.sigecweb.beniculturali.it/images/fullsize/ICCD12500/ICCD6133076_dd000509.jpg;"DIPINTO";"";"PAESAGGIO RURALE CON SCENA DI PASCOLO";"OA_2.00";"18 00053988";"RC, REGGIO CALABRIA";"MUSEO ARCHEOLOGICO NAZIONALE, PRIMO PIANO, SEZIONE DIDATTICA";"SEC. XVII ; 1600  - 1699 [ANALISI STILISTICA]";"AMBITO NAPOLETANO";"";"OLIO SU TELA";"alt. 21.5, largh. 47.9, ";"PROPRIETA' ENTE LOCALE, COMUNE DI REGGIO CALABRIA";"HA CORNICE IN LEGNO INTAGLIATO E DORATO";" Posizione: SUL RETRO DELLA TELA; RESTAURATO DAL / PROF. MICHELE PRESTIPINO DA/ REGGIO CAL. / 1957";"";"RC, REGGIO CALABRIA";"";"ROSA SALVATOR (NAPOLI 1615- ROMA 1673)";"";"";"";"";"DIPINTO";"";"";"";"RC";"REGGIO CALABRIA";"";"";"";"";"";"";"";"";"";"C337 (L.160/88)";"S14";"Compilatore scheda: LOJACONO L.; Funzionario responsabile: IANNACE R.";"1995";"";;
http://www.sigecweb.beniculturali.it/images/fullsize/ICCD12500/ICCD6132947_dd000377.jpg;"RILIEVO, FRAMMENTO";"";"";"OA_2.00";"18 00053862";"RC, POLISTENA";"MUSEO CIVICO";"SECC. XVII/ XVIII ; 1600  - 1700 [ANALISI STILISTICA]";"BOTTEGA LOCALE";"";"PIETRA SCOLPITA";"alt. 53, largh. 29, prof. 20.5, ";"PROPRIETA' ENTE LOCALE, COMUNE DI POLISTENA";"HA LA FORMA DI UN BALAUSTRO";"";"";"RC, POLISTENA";"";"";"";"";"";"";"RILIEVO";"";"";"";"RC";"POLISTENA";"";"";"";"";"";"";"";"";"";"C337 (L.160/88)";"S14";"Compilatore scheda: LOJACONO L.; Funzionario responsabile: IANNACE R.";"1995";"";38.412255;16.059411
http://www.sigecweb.beniculturali.it/images/fullsize/ICCD12500/ICCD6132994_dd000425.jpg;"DIPINTO";"";"TOBIA E SAN RAFFAELE ARCANGELO";"OA_2.00";"18 00053904";"RC, REGGIO CALABRIA";"MUSEO ARCHEOLOGICO NAZIONALE, LABORATORIO DI RESTAURO, SOPPALCO";"SEC. XVIII Seconda metà; 1750  - 1799 [ANALISI STILISTICA]";"AMBITO MERIDIONALE";"";"OLIO SU TELA";"alt. 47, largh. 30.7, ";"PROPRIETA' ENTE LOCALE, COMUNE DI REGGIO CALABRIA";"";"";"";"RC, REGGIO CALABRIA";"";"";"";"";"";"";"DIPINTO";"";"";"";"RC";"REGGIO CALABRIA";"";"";"";"";"";"";"";"";"";"C337 (L.160/88)";"S14";"Compilatore scheda: LOJACONO L.; Funzionario responsabile: IANNACE R.";"1995";"";;
http://www.sigecweb.beniculturali.it/images/fullsize/ICCD12500/ICCD6132995_dd000426.jpg;"DIPINTO";"";"";"OA_2.00";"18 00053905";"RC, REGGIO CALABRIA";"MUSEO ARCHEOLOGICO NAZIONALE, LABORATORIO DI RESTAURO, SOPPALCO";"SEC. XVIII ; 1700  - 1799 [ANALISI STILISTICA]";"AMBITO MERIDIONALE";"";"OLIO SU TAVOLA";"alt. 19.5, largh. 26.9, ";"PROPRIETA' ENTE LOCALE, COMUNE DI REGGIO CALABRIA";"HA CORNICE IN LEGNO INTAGLIATO E DORATO";"";"";"RC, REGGIO CALABRIA";"";"";"";"";"";"";"DIPINTO";"";"";"";"RC";"REGGIO CALABRIA";"";"";"";"";"";"";"";"";"";"C337 (L.160/88)";"S14";"Compilatore scheda: LOJACONO L.; Funzionario responsabile: IANNACE R.";"1995";"";;
http://www.sigecweb.beniculturali.it/images/fullsize/ICCD12500/ICCD6132996_dd000427.jpg;"DIPINTO";"";"TRANSITO DI SAN LUIGI TRA ANGELI E SANTI";"OA_2.00";"18 00053906";"RC, REGGIO CALABRIA";"MUSEO ARCHEOLOGICO NAZIONALE, LABORATORIO DI RESTAURO, SOPPALCO";"SEC. XVIII ; 1700  - 1799 [ANALISI STILISTICA]";"AMBITO MERIDIONALE";"";"OLIO SU TELA";"alt. 29.6, largh. 19.8, ";"PROPRIETA' ENTE LOCALE, COMUNE DI REGGIO CALABRIA";"HA CORNICE IN LEGNO INTAGLIATO E DORATO";"";"";"RC, REGGIO CALABRIA";"";"";"";"";"";"";"DIPINTO";"";"";"";"RC";"REGGIO CALABRIA";"";"";"";"";"";"";"";"";"";"C337 (L.160/88)";"S14";"Compilatore scheda: LOJACONO L.; Funzionario responsabile: IANNACE R.";"1995";"";;
http://www.sigecweb.beniculturali.it/images/fullsize/ICCD12500/ICCD6133028_dd000460.jpg;"RILIEVO, FRAMMENTO";"";"";"OA_2.00";"18 00053940";"RC, POLISTENA";"MUSEO CIVICO";"SECC. XVIII/ XIX ; 1800  - 1899 [ANALISI STILISTICA]";"BOTTEGA LOCALE";"";"MARMO SCOLPITO";"alt. 62.4, largh. 23.2, prof. 7.8, ";"PROPRIETA' ENTE LOCALE, COMUNE DI POLISTENA";"IL RILIEVO RECA SCOLPITI UNA VOLUTA ED UN ELEMENTO FOLIACEO";"";"";"RC, POLISTENA";"";"";"";"";"";"";"RILIEVO";"";"";"";"RC";"POLISTENA";"";"";"";"";"";"";"";"";"";"C337 (L.160/88)";"S14";"Compilatore scheda: LOJACONO L.; Funzionario responsabile: IANNACE R.";"1995";"";38.412255;16.059411
http://www.sigecweb.beniculturali.it/images/fullsize/ICCD12500/ICCD6132997_dd000428.jpg;"DIPINTO";"";"CRISTO PORTACROCE";"OA_2.00";"18 00053907";"RC, REGGIO CALABRIA";"MUSEO ARCHEOLOGICO NAZIONALE, LABORATORIO DI RESTAURO, SOPPALCO";"SEC. XVIII ; 1700  - 1799 [ANALISI STILISTICA]";"AMBITO LOCALE";"";"OLIO SU TELA";"alt. 92, largh. 70, ";"PROPRIETA' ENTE LOCALE, COMUNE DI REGGIO CALABRIA";"";"";"";"RC, REGGIO CALABRIA";"";"";"";"";"";"";"DIPINTO";"";"";"";"RC";"REGGIO CALABRIA";"";"";"";"";"";"";"";"";"";"C337 (L.160/88)";"S14";"Compilatore scheda: LOJACONO L.; Funzionario responsabile: IANNACE R.";"1995";"";;
http://www.sigecweb.beniculturali.it/images/fullsize/ICCD12500/ICCD6132998_dd000429.jpg;"DIPINTO";"";"RITRATTO DI GIOVANE MEMBRO DELLA FAMIGLIA GENOESE";"OA_2.00";"18 00053908";"RC, REGGIO CALABRIA";"MUSEO ARCHEOLOGICO NAZIONALE, LABORATORIO DI RESTAURO, SOPPALCO";"SEC. XIX ; 1800  - 1899 [ANALISI STILISTICA]";"AMBITO LOCALE";"";"OLIO SU TELA";"alt. 104, largh. 77.7, ";"PROPRIETA' ENTE LOCALE, COMUNE DI REGGIO CALABRIA";"HA RICCA CORNICE IN LEGNO INTAGLIATO E DORATO, LA CUI DECORAZIONE COMPRENDE COMPOSIZIONI FITOMORFE E VOLUTE FOLIACEE.IL GIOVANE E' RITRATTO SEDUTO, COL BRACCIO SINISTRO APPOGGIATO AD UN TAVOLO COPERTO DA UN DRAPPO ROSSO.";"";"";"RC, REGGIO CALABRIA";"";"";"";"";"";"";"DIPINTO";"";"";"";"RC";"REGGIO CALABRIA";"";"";"";"";"";"";"";"";"";"C337 (L.160/88)";"S14";"Compilatore scheda: LOJACONO L.; Funzionario responsabile: IANNACE R.";"1995";"";;
http://www.sigecweb.beniculturali.it/images/fullsize/ICCD12500/ICCD6132999_dd000430.jpg;"DIPINTO";"";"RITRATTO DI GIOVANE MEMBRO DELLA FAMIGLIA GENOESE";"OA_2.00";"18 00053909";"RC, REGGIO CALABRIA";"MUSEO ARCHEOLOGICONAZIONALE, LABORATORIO DI RESTAURO, SOPPALCO";"SEC. XIX ; 1800  - 1899 [ANALISI STILISTICA]";"AMBITO LOCALE";"";"OLIO SU TELA";"alt. 72, largh. 52, ";"PROPRIETA' ENTE LOCALE, COMUNE DI REGGIO CALABRIA";"HA RICCA CORNICE IN LEGNO INTAGLIATO E DORATO , LA CUI DECORAZIONE COMPRENDE MOTIVI FITOMORFI E VOLUTE FOLIACEE.";"";"";"RC, REGGIO CALABRIA";"";"";"";"";"";"";"DIPINTO";"";"";"";"RC";"REGGIO CALABRIA";"";"";"";"";"";"";"";"";"";"C337 (L.160/88)";"S14";"Compilatore scheda: LOJACONO L.; Funzionario responsabile: IANNACE R.";"1995";"";;
http://www.sigecweb.beniculturali.it/images/fullsize/ICCD12500/ICCD6133000_dd000431.jpg;"DIPINTO";"";"RITRATTO DI GIOVANE MEMBRO DELLA FAMIGLIA GENOESE";"OA_2.00";"18 00053910";"RC, REGGIO CALABRIA";"MUSEO ARCHEOLOGICO NAZIONALE, LABORATORIO DI RESTAURO, SOPPALCO";"SEC. XIX ; 1800  - 1899 [ANALISI STILISTICA]";"AMBITO MERIDIONALE";"";"OLIO SU TELA";"alt. 77.4, largh. 63.4, ";"PROPRIETA' ENTE LOCALE, COMUNE DI REGGIO CALABRIA";"HA RICCA CORNICE IN LEGNO INTAGLIATO E DECORATO, LA CUI DECORAZIONE COMPRENDE MOTIVI FITOMORFI E VOLUTE FOLIACEE.";"";"";"RC, REGGIO CALABRIA";"";"";"";"";"";"";"DIPINTO";"";"";"";"RC";"REGGIO CALABRIA";"";"";"";"";"";"";"";"";"";"C337 (L.160/88)";"S14";"Compilatore scheda: LOJACONO L.; Funzionario responsabile: IANNACE R.";"1995";"";;
http://www.sigecweb.beniculturali.it/images/fullsize/ICCD12500/ICCD6133003_dd000434.jpg;"DIPINTO";"";"MARIA MADDALENA UNGE E ASCIUGA CON I CAPELLI I PIEDI DI GESU'";"OA_2.00";"18 00053913";"RC, REGGIO CALABRIA";"MUSEO ARCHEOLOGICO NAZIONALE, LABORATORIO DI RESTAURO, SOPPALCO";"SECC. XVI/ XVII ; 1500  - 1699 [ANALISI STILISTICA]";"AMBITO CALABRESE";"";"OLIO SU TELA";"alt. 57, largh. 43.8, ";"PROPRIETA' ENTE LOCALE, COMUNE DI REGGIO CALABRIA";"";"";"";"RC, REGGIO CALABRIA";"";"";"";"";"";"";"DIPINTO";"";"";"";"RC";"REGGIO CALABRIA";"";"";"";"";"";"";"";"";"";"C337 (L.160/88)";"S14";"Compilatore scheda: LOJACONO L.; Funzionario responsabile: IANNACE R.";"1995";"";;
http://www.sigecweb.beniculturali.it/images/fullsize/ICCD12500/ICCD6133004_dd000435.jpg;"DIPINTO";"";"ECCE HOMO V. ANCHE PILATO MOSTRA CRISTO AL POPOLO";"OA_2.00";"18 00053914";"RC, REGGIO CALABRIA";"MUSEO ARCHEOLOGICO NAZIONALE, LABORATORIO DI RESTAURO, SOPPALCO";"SEC. XVII ; 1600  - 1699 [ANALISI STILISTICA]";"AMBITO MERIDIONALE";"";"OLIO SU TELA";"alt. 63, largh. 50.3, ";"PROPRIETA' ENTE LOCALE, COMUNE DI REGGIO CALABRIA";"";"";"";"RA, RAVENNA";"";"";"";"";"";"";"DIPINTO";"";"";"";"RC";"REGGIO CALABRIA";"";"";"";"";"";"";"";"";"";"C337 (L.160/88)";"S14";"Compilatore scheda: LOJACONO L.; Funzionario responsabile: IANNACE R.";"1995";"";;
http://www.sigecweb.beniculturali.it/images/fullsize/ICCD12500/ICCD6133021_dd000453.jpg;"DIPINTO";"";"SAN SEBASTIANO";"OA_2.00";"18 00053932";"RC, REGGIO CALABRIA";"MUSEO ARCHEOLOGICO NAZIONALE, PRIMO PIANI, STANZA N. 11";"SEC. XVII Prima metà; 1600  - 1649 [ANALISI STILISTICA]";"AMBITO ROMANO";"";"OLIO SU TELA";"alt. 103, largh. 72, ";"PROPRIETA' ENTE LOCALE, COMUNE DI REGGIO CALABRIA";"";"";"";"RC, REGGIO CALABRIA";"";"";"";"";"";"";"DIPINTO";"";"";"";"RC";"REGGIO CALABRIA";"";"";"";"";"";"";"";"";"";"C337 (L.160/88)";"S14";"Compilatore scheda: LOJACONO L.; Funzionario responsabile: IANNACE R.";"1995";"";;
http://www.sigecweb.beniculturali.it/images/fullsize/ICCD12500/ICCD6133022_dd000454.jpg;"STATUA";"";"SANTO STEFANO";"OA_2.00";"18 00053933";"RC, REGGIO CALABRIA";"MUSEO ARCHEOLOGICO NAZIONALE, MAGAZZINO N. 7";"SEC. XVII ; 1600  - 1649 [ANALISI STILISTICA]";"AMBITO MERIDIONALE";"";"LEGNO SCOLPITOLEGNO DIPINTO";"alt. 157, largh. 45.4, prof. 37.9, ";"PROPRIETA' ENTE LOCALE, COMUNE DI REGGIO CALABRIA";"IL SANTO VESTITO DA DIACONO, REGGE CON LA MANO SINISTRA UN LIBRO SUL QUALE SONO TRE PIETRE.";"";"";"RC, REGGIO CALABRIA";"";"";"";"";"";"";"STATUA";"";"";"";"RC";"REGGIO CALABRIA";"";"";"";"";"";"";"";"";"";"C337 (L.160/88)";"S14";"Compilatore scheda: LOJACONO L.; Funzionario responsabile: IANNACE R.";"1995";"";;
http://www.sigecweb.beniculturali.it/images/fullsize/ICCD12500/ICCD6133025_dd000457.jpg;"RILIEVO";"";"FLAGELLAZIONE DI CRISTO V. ANCHE CRISTO FLAGELLATO CRISTO ALLA COLONNA";"OA_2.00";"18 00053936";"RC, REGGIO CALABRIA";"MUSEO ARCHEOLOGICO NAZIONALE";"SEC. XVIII ; 1800  - 1849 [ANALISI STILISTICA]";"AMBITO MERIDIONALE";"";"gesso dipinto/ modellato";"alt. 20.8, largh. 16.1, ";"PROPRIETA' ENTE LOCALE, COMUNE DI REGGIO CALABRIA";"BASSORILIEVO CON CORNICE IN LEGNO INTAGLIATO";"";"";"RC, REGGIO CALABRIA";"";"";"";"";"";"";"RILIEVO";"";"";"";"RC";"REGGIO CALABRIA";"";"";"";"";"";"";"";"";"";"C337 (L.160/88)";"S14";"Compilatore scheda: LOJACONO L.; Funzionario responsabile: IANNACE R.; Aggiornamento-revisione: ICCD (2001); ";"1995";"2001";;
http://www.sigecweb.beniculturali.it/images/fullsize/ICCD12500/ICCD6133029_dd000461.jpg;"ACQUASANTIERA";"";"";"OA_2.00";"18 00053941";"RC, POLISTENA";"MUSEO CIVICO";"SECC. XVII/ XIX ; 1800  - 1899 [ANALISI STILISTICA]";"BOTTEGA LOCALE";"";"PIETRA SCOLPITA";"alt. 11.5, prof. 23.4, ";"PROPRIETA' ENTE LOCALE, COMUNE DI POLISTENA";"SI COMPONE DI UN CORPO CON LIEVE CAVITA', SUL CUI FONDO ESTERNO E' SCOLPITA UNA MANO APERTA.";"";"";"RC, POLISTENA";"";"";"";"";"";"";"ACQUASANTIERA";"";"";"";"RC";"POLISTENA";"";"";"";"";"";"";"";"";"";"C337 (L.160/88)";"S14";"Compilatore scheda: LOJACONO L.; Funzionario responsabile: IANNACE R.";"1995";"";38.412255;16.059411
http://www.sigecweb.beniculturali.it/images/fullsize/ICCD12500/ICCD6350922_dd000463.jpg;"RILIEVO, FRAMMENTO";"";"";"OA_2.00";"18 00053943";"RC, POLISTENA";"MUSEO CIVICO";"SECC. XVI/ XVIII ; 1800  - 1899 [ANALISI STILISTICA]";"BOTTEGA LOCALE";"";"MARMO SCOLPITO";"alt. 18.5, largh. 38, sp. 8";"PROPRIETA' ENTE LOCALE, COMUNE DI POLISTENA";"STEMMI, EMBLEMI, MARCHI: Classe di appartenenza: STEMMA, Identificazione: NON IDENTIFICABILE, Quantità: 1, ";"";"";"RC, POLISTENA";"";"";"";"";"";"";"RILIEVO";"";"";"";"RC";"POLISTENA";"";"";"";"";"";"";"";"";"";"C337 (L.160/88)";"S14";"Compilatore scheda: LOJACONO L.; Funzionario responsabile: IANNACE R.";"1995";"";38.412255;16.059411
http://www.sigecweb.beniculturali.it/images/fullsize/ICCD12500/ICCD6132937_dd000367.jpg;"RILIEVO, FRAMMENTO";"";"";"OA_2.00";"18 00053852";"RC, POLISTENA";"MUSEO CIVICO";"SECC. XIX/ XX ; 1880  - 1920 [ANALISI STILISTICA]";"BOTTEGA LOCALE";"";"MARMO SCOLPITO";"alt. 18.5, largh. 37, prof. 15, ";"PROPRIETA' ENTE LOCALE, COMUNE DI POLISTENA";"";"";"";"RC, POLISTENA";"";"";"";"";"";"";"RILIEVO";"";"";"";"RC";"POLISTENA";"";"";"";"";"";"";"";"";"";"C337 (L.160/88)";"S14";"Compilatore scheda: LOJACONO L.; Funzionario responsabile: IANNACE R.";"1995";"";38.412255;16.059411
http://www.sigecweb.beniculturali.it/images/fullsize/ICCD12500/ICCD6132939_dd000369.jpg;"BASE, FRAMMENTO";"";"";"OA_2.00";"18 00053854";"RC, POLISTENA";"MUSEO CIVICO";"SECC. XVIII/ XIX ; 1700  - 1899 [ANALISI STILISTICA]";"BOTTEGA LOCALE";"";"MARMO INTARSIATO/ SCOLPITO";"alt. 18, largh. 17.2, prof. 17.2, ";"PROPRIETA' ENTE LOCALE, COMUNE DI POLISTENA";"HA SEZIONE QUADRANGOLARE E' RASTREMATA VERSO L'ALTO E DECORATA DA UNA SEMPLICE MODANATURA";"";"";"RC, POLISTENA";"";"";"";"";"";"";"BASE";"";"";"";"RC";"POLISTENA";"";"";"";"";"";"";"";"";"";"C337 (L.160/88)";"S14";"Compilatore scheda: LOJACONO L.; Funzionario responsabile: IANNACE R.";"1995";"";38.412255;16.059411
http://www.sigecweb.beniculturali.it/images/fullsize/ICCD12500/ICCD6132942_dd000372.jpg;"ACQUASANTIERA DA PARETE";"";"";"OA_2.00";"18 00053857";"RC, POLISTENA";"MUSEO CIVICO";"SECC. XVII/ XVIII ; 1600  - 1700 [ANALISI STILISTICA]";"BOTTEGA LOCALE";"";"MARMO SCOLPITO";"alt. 14, largh. 41.4, prof. 62.8, ";"PROPRIETA' ENTE LOCALE, COMUNE DI POLISTENA";"";"";"";"RC, POLISTENA";"";"";"";"";"";"";"ACQUASANTIERA DA PARETE";"";"";"";"RC";"POLISTENA";"";"";"";"";"";"";"";"";"";"C337 (L.160/88)";"S14";"Compilatore scheda: LOJACONO L.; Funzionario responsabile: IANNACE R.; Aggiornamento-revisione: ICCD (2001); ";"1995";"2001";38.412255;16.059411
http://www.sigecweb.beniculturali.it/images/fullsize/ICCD12500/ICCD6132918_dd000348.jpg;"BASE, FRAMMENTO";"";"";"OA_2.00";"18 00053834";"RC, POLISTENA";"MUSEO CIVICO";"SEC. XVIII FINE; 1790  - 1799 [ANALISI STILISTICA]";"AMBITO LOCALE";"";"MARMO SCOLPITO";"alt. 32, largh. 29.6, prof. 13.8, ";"PROPRIETA' ENTE LOCALE, COMUNE DI POLISTENA";"SU UN LATO SONO IN BASSO, DUEFIACCOLE INCROCIATE E, IN ALTO, UNA TESTINA CON GORGIERA; SULL'ALTRO, RISPETTIVAMENTE, TRE CERCHI CON DRAPPO E DUE TENDE APERTE";"";"";"RC, POLISTENA";"";"";"";"";"";"";"BASE";"";"";"";"RC";"POLISTENA";"";"";"";"";"";"";"";"";"";"C337 (L.160/88)";"S14";"Compilatore scheda: LOJACONO L.; Funzionario responsabile: IANNACE R.";"1995";"";38.412255;16.059411
